KUIPER-00008            
1 63724U 25088A   26188.26385164 -.00001171  00000+0 -12464-3 0  9996
2 63724  51.9008 279.2527 0000485  98.2359 261.8658 14.79919170 65751
KUIPER-00009            
1 63725U 25088B   26188.34627370  .00000460  00000+0  89336-4 0  9995
2 63725  51.9024 296.5184 0000707  78.8651 281.2390 14.79914977 65510
KUIPER-00010            
1 63726U 25088C   26188.23548952 -.00001289  00000+0 -14018-3 0  9998
2 63726  51.9028 274.4810 0000634  91.3221 268.7814 14.79927954 65439
KUIPER-00011            
1 63727U 25088D   26188.73388675 -.00000056  00000+0  21697-4 0  9990
2 63727  51.9011 279.8259 0000679 113.9191 246.1842 14.79924588 65536
KUIPER-00012            
1 63728U 25088E   26188.24358134 -.00000665  00000+0 -58300-4 0  9992
2 63728  51.8998 266.9265 0000813 111.4614 248.6435 14.79922160 65626
KUIPER-00013            
1 63729U 25088F   26188.30980995  .00000350  00000+0  74881-4 0  9997
2 63729  51.9039 299.1542 0000710 115.6728 244.4307 14.79915598 65289
KUIPER-00014            
1 63730U 25088G   26188.27605423 -.00000954  00000+0 -96160-4 0  9991
2 63730  51.8996 299.2444 0000410 110.0224 250.0783 14.79925573 65095
KUIPER-00015            
1 63731U 25088H   26188.36656804 -.00000264  00000+0 -56230-5 0  9990
2 63731  51.8994 308.9084 0000433  98.1612 261.9399 14.79923191 65429
KUIPER-00016            
1 63732U 25088J   26188.34085977  .00001576  00000+0  23579-3 0  9999
2 63732  51.8967 301.4718 0001431 101.6623 258.4500 14.79926292 65063
KUIPER-00018            
1 63733U 25088K   26188.31791249 -.00000084  00000+0  17959-4 0  9993
2 63733  51.9041 291.6047 0000993 113.7646 246.3421 14.79923393 65207
KUIPER-00019            
1 63734U 25088L   26188.34458451 -.00000153  00000+0  89687-5 0  9997
2 63734  51.8995 290.2455 0000630 107.7866 252.3165 14.79918417 65223
KUIPER-00020            
1 63735U 25088M   26188.31519876 -.00000294  00000+0 -96138-5 0  9990
2 63735  51.9039 294.1242 0000498  51.5834 308.5173 14.79937782 65379
KUIPER-00021            
1 63736U 25088N   26188.34897637 -.00001716  00000+0 -19620-3 0  9997
2 63736  51.9021 293.9285 0000655  98.6146 261.4890 14.79925965 65214
KUIPER-00023            
1 63737U 25088P   26188.31246717  .00001376  00000+0  20942-3 0  9991
2 63737  51.9022 296.5778 0000587 121.9807 238.1212 14.79947326 65472
KUIPER-00024            
1 63738U 25088Q   26188.25847802 -.00001753  00000+0 -20105-3 0  9999
2 63738  51.9043 284.4144 0000667  98.0825 262.0213 14.79926584 65764
KUIPER-00025            
1 63739U 25088R   26188.28413547  .00000453  00000+0  88422-4 0  9999
2 63739  51.9042 291.7823 0000555  65.9625 294.1395 14.79910227 65524
