{"fetched_at":"2026-07-08T07:03:33.083Z","source":"https://celestrak.org/NORAD/elements/gp.php?GROUP=kuiper&FORMAT=JSON","constellation":"kuiper","records":[{"OBJECT_NAME":"KUIPER-00008","OBJECT_ID":"2025-088A","EPOCH":"2026-07-07T06:19:56.781696","CLASSIFICATION_TYPE":"U","MEAN_MOTION":14.7991917,"ECCENTRICITY":0.00004852,"INCLINATION":51.9008,"RA_OF_ASC_NODE":279.2527,"ARG_OF_PERICENTER":98.2359,"MEAN_ANOMALY":261.8658,"EPHEMERIS_TYPE":0,"NORAD_CAT_ID":63724,"ELEMENT_SET_NO":999,"REV_AT_EPOCH":6575,"BSTAR":-0.00012463936,"MEAN_MOTION_DOT":-0.00001171,"MEAN_MOTION_DDOT":0},{"OBJECT_NAME":"KUIPER-00009","OBJECT_ID":"2025-088B","EPOCH":"2026-07-07T08:18:38.047680","CLASSIFICATION_TYPE":"U","MEAN_MOTION":14.79914977,"ECCENTRICITY":0.0000707,"INCLINATION":51.9024,"RA_OF_ASC_NODE":296.5184,"ARG_OF_PERICENTER":78.8651,"MEAN_ANOMALY":281.239,"EPHEMERIS_TYPE":0,"NORAD_CAT_ID":63725,"ELEMENT_SET_NO":999,"REV_AT_EPOCH":6551,"BSTAR":0.000089335854,"MEAN_MOTION_DOT":0.0000046,"MEAN_MOTION_DDOT":0},{"OBJECT_NAME":"KUIPER-00010","OBJECT_ID":"2025-088C","EPOCH":"2026-07-07T05:39:06.294528","CLASSIFICATION_TYPE":"U","MEAN_MOTION":14.79927954,"ECCENTRICITY":0.0000634,"INCLINATION":51.9028,"RA_OF_ASC_NODE":274.481,"ARG_OF_PERICENTER":91.3221,"MEAN_ANOMALY":268.7814,"EPHEMERIS_TYPE":0,"NORAD_CAT_ID":63726,"ELEMENT_SET_NO":999,"REV_AT_EPOCH":6543,"BSTAR":-0.00014017727,"MEAN_MOTION_DOT":-0.00001289,"MEAN_MOTION_DDOT":0},{"OBJECT_NAME":"KUIPER-00011","OBJECT_ID":"2025-088D","EPOCH":"2026-07-07T17:36:47.815200","CLASSIFICATION_TYPE":"U","MEAN_MOTION":14.79924588,"ECCENTRICITY":0.0000679,"INCLINATION":51.9011,"RA_OF_ASC_NODE":279.8259,"ARG_OF_PERICENTER":113.9191,"MEAN_ANOMALY":246.1842,"EPHEMERIS_TYPE":0,"NORAD_CAT_ID":63727,"ELEMENT_SET_NO":999,"REV_AT_EPOCH":6553,"BSTAR":0.000021697,"MEAN_MOTION_DOT":-5.6e-7,"MEAN_MOTION_DDOT":0},{"OBJECT_NAME":"KUIPER-00012","OBJECT_ID":"2025-088E","EPOCH":"2026-07-07T05:50:45.427776","CLASSIFICATION_TYPE":"U","MEAN_MOTION":14.7992216,"ECCENTRICITY":0.00008137,"INCLINATION":51.8998,"RA_OF_ASC_NODE":266.9265,"ARG_OF_PERICENTER":111.4614,"MEAN_ANOMALY":248.6435,"EPHEMERIS_TYPE":0,"NORAD_CAT_ID":63728,"ELEMENT_SET_NO":999,"REV_AT_EPOCH":6562,"BSTAR":-0.000058299592,"MEAN_MOTION_DOT":-0.00000665,"MEAN_MOTION_DDOT":0},{"OBJECT_NAME":"KUIPER-00013","OBJECT_ID":"2025-088F","EPOCH":"2026-07-07T07:26:07.579680","CLASSIFICATION_TYPE":"U","MEAN_MOTION":14.79915598,"ECCENTRICITY":0.00007107,"INCLINATION":51.9039,"RA_OF_ASC_NODE":299.1542,"ARG_OF_PERICENTER":115.6728,"MEAN_ANOMALY":244.4307,"EPHEMERIS_TYPE":0,"NORAD_CAT_ID":63729,"ELEMENT_SET_NO":999,"REV_AT_EPOCH":6528,"BSTAR":0.000074880949,"MEAN_MOTION_DOT":0.0000035,"MEAN_MOTION_DDOT":0},{"OBJECT_NAME":"KUIPER-00014","OBJECT_ID":"2025-088G","EPOCH":"2026-07-07T06:37:31.085472","CLASSIFICATION_TYPE":"U","MEAN_MOTION":14.79925573,"ECCENTRICITY":0.00004108,"INCLINATION":51.8996,"RA_OF_ASC_NODE":299.2444,"ARG_OF_PERICENTER":110.0224,"MEAN_ANOMALY":250.0783,"EPHEMERIS_TYPE":0,"NORAD_CAT_ID":63730,"ELEMENT_SET_NO":999,"REV_AT_EPOCH":6509,"BSTAR":-0.000096159737,"MEAN_MOTION_DOT":-0.00000954,"MEAN_MOTION_DDOT":0},{"OBJECT_NAME":"KUIPER-00015","OBJECT_ID":"2025-088H","EPOCH":"2026-07-07T08:47:51.478656","CLASSIFICATION_TYPE":"U","MEAN_MOTION":14.79923191,"ECCENTRICITY":0.00004336,"INCLINATION":51.8994,"RA_OF_ASC_NODE":308.9084,"ARG_OF_PERICENTER":98.1612,"MEAN_ANOMALY":261.9399,"EPHEMERIS_TYPE":0,"NORAD_CAT_ID":63731,"ELEMENT_SET_NO":999,"REV_AT_EPOCH":6542,"BSTAR":-0.000005622962,"MEAN_MOTION_DOT":-0.00000264,"MEAN_MOTION_DDOT":0},{"OBJECT_NAME":"KUIPER-00016","OBJECT_ID":"2025-088J","EPOCH":"2026-07-07T08:10:50.284128","CLASSIFICATION_TYPE":"U","MEAN_MOTION":14.79926292,"ECCENTRICITY":0.0001431,"INCLINATION":51.8967,"RA_OF_ASC_NODE":301.4718,"ARG_OF_PERICENTER":101.6623,"MEAN_ANOMALY":258.45,"EPHEMERIS_TYPE":0,"NORAD_CAT_ID":63732,"ELEMENT_SET_NO":999,"REV_AT_EPOCH":6506,"BSTAR":0.00023579,"MEAN_MOTION_DOT":0.00001576,"MEAN_MOTION_DDOT":0},{"OBJECT_NAME":"KUIPER-00018","OBJECT_ID":"2025-088K","EPOCH":"2026-07-07T07:37:47.639136","CLASSIFICATION_TYPE":"U","MEAN_MOTION":14.79923393,"ECCENTRICITY":0.00009934,"INCLINATION":51.9041,"RA_OF_ASC_NODE":291.6047,"ARG_OF_PERICENTER":113.7646,"MEAN_ANOMALY":246.3421,"EPHEMERIS_TYPE":0,"NORAD_CAT_ID":63733,"ELEMENT_SET_NO":999,"REV_AT_EPOCH":6520,"BSTAR":0.000017958575,"MEAN_MOTION_DOT":-8.4e-7,"MEAN_MOTION_DDOT":0},{"OBJECT_NAME":"KUIPER-00019","OBJECT_ID":"2025-088L","EPOCH":"2026-07-07T08:16:12.101664","CLASSIFICATION_TYPE":"U","MEAN_MOTION":14.79918417,"ECCENTRICITY":0.00006306,"INCLINATION":51.8995,"RA_OF_ASC_NODE":290.2455,"ARG_OF_PERICENTER":107.7866,"MEAN_ANOMALY":252.3165,"EPHEMERIS_TYPE":0,"NORAD_CAT_ID":63734,"ELEMENT_SET_NO":999,"REV_AT_EPOCH":6522,"BSTAR":0.00000896872,"MEAN_MOTION_DOT":-0.00000153,"MEAN_MOTION_DDOT":0},{"OBJECT_NAME":"KUIPER-00020","OBJECT_ID":"2025-088M","EPOCH":"2026-07-07T07:33:53.172864","CLASSIFICATION_TYPE":"U","MEAN_MOTION":14.79937782,"ECCENTRICITY":0.00004984,"INCLINATION":51.9039,"RA_OF_ASC_NODE":294.1242,"ARG_OF_PERICENTER":51.5834,"MEAN_ANOMALY":308.5173,"EPHEMERIS_TYPE":0,"NORAD_CAT_ID":63735,"ELEMENT_SET_NO":999,"REV_AT_EPOCH":6537,"BSTAR":-0.000009613819,"MEAN_MOTION_DOT":-0.00000294,"MEAN_MOTION_DDOT":0},{"OBJECT_NAME":"KUIPER-00021","OBJECT_ID":"2025-088N","EPOCH":"2026-07-07T08:22:31.558368","CLASSIFICATION_TYPE":"U","MEAN_MOTION":14.79925965,"ECCENTRICITY":0.00006557,"INCLINATION":51.9021,"RA_OF_ASC_NODE":293.9285,"ARG_OF_PERICENTER":98.6146,"MEAN_ANOMALY":261.489,"EPHEMERIS_TYPE":0,"NORAD_CAT_ID":63736,"ELEMENT_SET_NO":999,"REV_AT_EPOCH":6521,"BSTAR":-0.00019620087,"MEAN_MOTION_DOT":-0.00001716,"MEAN_MOTION_DDOT":0},{"OBJECT_NAME":"KUIPER-00023","OBJECT_ID":"2025-088P","EPOCH":"2026-07-07T07:29:57.163488","CLASSIFICATION_TYPE":"U","MEAN_MOTION":14.79947326,"ECCENTRICITY":0.0000587,"INCLINATION":51.9022,"RA_OF_ASC_NODE":296.5778,"ARG_OF_PERICENTER":121.9807,"MEAN_ANOMALY":238.1212,"EPHEMERIS_TYPE":0,"NORAD_CAT_ID":63737,"ELEMENT_SET_NO":999,"REV_AT_EPOCH":6547,"BSTAR":0.00020942233,"MEAN_MOTION_DOT":0.00001376,"MEAN_MOTION_DDOT":0},{"OBJECT_NAME":"KUIPER-00024","OBJECT_ID":"2025-088Q","EPOCH":"2026-07-07T06:12:12.500928","CLASSIFICATION_TYPE":"U","MEAN_MOTION":14.79926584,"ECCENTRICITY":0.00006672,"INCLINATION":51.9043,"RA_OF_ASC_NODE":284.4144,"ARG_OF_PERICENTER":98.0825,"MEAN_ANOMALY":262.0213,"EPHEMERIS_TYPE":0,"NORAD_CAT_ID":63738,"ELEMENT_SET_NO":999,"REV_AT_EPOCH":6576,"BSTAR":-0.00020104978,"MEAN_MOTION_DOT":-0.00001753,"MEAN_MOTION_DDOT":0},{"OBJECT_NAME":"KUIPER-00025","OBJECT_ID":"2025-088R","EPOCH":"2026-07-07T06:49:09.304608","CLASSIFICATION_TYPE":"U","MEAN_MOTION":14.79910227,"ECCENTRICITY":0.00005557,"INCLINATION":51.9042,"RA_OF_ASC_NODE":291.7823,"ARG_OF_PERICENTER":65.9625,"MEAN_ANOMALY":294.1395,"EPHEMERIS_TYPE":0,"NORAD_CAT_ID":63739,"ELEMENT_SET_NO":999,"REV_AT_EPOCH":6552,"BSTAR":0.000088422291,"MEAN_MOTION_DOT":0.00000453,"MEAN_MOTION_DDOT":0}]}
